satname,norad_id,inclination_deg,eccentricity,mean_motion_rev_per_day,perigee_km,apogee_km,l1,l2
STARLINK-1296,45412,53.1555,0.0004701,15.35369543,456.6085455866796,463.03759564507345,1 45412U 20019BE  26124.64535338  .00071108  00000+0  20317-2 0  9991,2 45412  53.1555 228.3672 0004701 319.1821  40.8829 15.35369543338558
STARLINK-1309,45414,53.062,0.0005615,15.65114569,369.118568271957,376.69999324524997,1 45414U 20019BG  26124.54726289  .00046470  00000+0  46492-3 0  9996,2 45414  53.0620 211.5063 0005615 298.9521  61.0930 15.65114569338755
STARLINK-1316,45415,53.1576,0.0005052,15.35630062,455.59553065375894,462.5038240725671,1 45415U 20019BH  26124.75134179  .00027071  00000+0  77823-3 0  9999,2 45415  53.1576 227.8774 0005052 322.6145  37.4506 15.35630062338594
STARLINK-1286,45417,53.047,0.0002536,15.55550216,398.8346148649516,402.27276678333783,1 45417U 20019BK  26124.46081227  .00047027  00000+0  67810-3 0  9992,2 45417  53.0470 221.8238 0002536 295.1837  64.8910 15.55550216338893
STARLINK-1308,45419,53.0486,0.0006457,15.61024613,380.3294097793987,389.0629325366317,1 45419U 20019BM  26124.50541250  .00103120  00000+0  11942-2 0  9997,2 45419  53.0486 241.9397 0006457 284.1030  75.9265 15.61024613338362
STARLINK-1329,45531,53.0418,0.0004728,15.69152722,358.1355225002708,364.5083548726934,1 45531U 20025A   26124.40261398  .00051502  00000+0  43701-3 0  9995,2 45531  53.0418 168.0321 0004728  25.2771 334.8475 15.69152722334179
STARLINK-1338,45532,53.0441,0.0004045,15.64626765,371.5810254458511,377.04375700335186,1 45532U 20025B   26123.87354437  .00047635  00000+0  48583-3 0  9998,2 45532  53.0441 176.0366 0004045   2.7768 357.3268 15.64626765334013
STARLINK-1350,45535,53.0699,0.000121,15.37465866,452.77934536584326,454.4326271685204,1 45535U 20025E   26124.71837323  .00009645  00000+0  26879-3 0  9998,2 45535  53.0699 129.7231 0001210  51.2062 308.9048 15.37465866334778
STARLINK-1362,45538,53.1584,0.0002435,15.3412547,461.853379584044,465.1852662132951,1 45538U 20025H   26124.50514697 -.00129640  00000+0 -39257-2 0  9997,2 45538  53.1584 201.0877 0002435  42.3401 317.7789 15.34125470333739
STARLINK-1368,45540,53.1569,0.0003227,15.34495943,460.21064512182966,464.62553937836765,1 45540U 20025K   26124.58412524  .00049135  00000+0  14513-2 0  9990,2 45540  53.1569 201.0916 0003227  12.0036 348.1042 15.34495943333732
STARLINK-1371,45542,53.0451,0.0006457,15.56600788,393.1282935389281,401.8783554539823,1 45542U 20025M   26124.52160811  .00086381  00000+0  11859-2 0  9999,2 45542  53.0451 180.7794 0006457 359.2356   0.8644 15.56600788334009
STARLINK-1372,45543,53.1583,0.0002896,15.35100357,458.6419183289345,462.6029277867683,1 45543U 20025N   26124.48928423  .00130945  00000+0  37353-2 0  9999,2 45543  53.1583 201.1629 0002896  13.5339 346.5742 15.35100357332827
STARLINK-1373,45544,53.0447,0.0003578,15.66422404,366.7368625087056,371.5652218316827,1 45544U 20025P   26124.91668980 -.00018664  00000+0 -17121-3 0  9994,2 45544  53.0447 176.5931 0003578 334.9341 184.9141 15.66422404  5983
STARLINK-1327,45555,53.0423,0.0005065,15.63611624,373.81306706390205,380.6562585583288,1 45555U 20025AA  26124.30388426  .00098926  00000+0  10372-2 0  9990,2 45555  53.0423 156.1818 0005065 337.5957  22.4835 15.63611624334322
STARLINK-1356,45564,53.0458,0.0003904,15.53391283,404.18415413661205,409.4818587176296,1 45564U 20025AK  26124.40570950  .00080735  00000+0  12487-2 0  9994,2 45564  53.0458 166.8275 0003904 340.8641  19.2221 15.53391283334184
STARLINK-1357,45565,53.0447,0.0007954,15.65813729,365.53131662544456,376.2676838900534,1 45565U 20025AL  26124.40218353  .00047831  00000+0  46480-3 0  9992,2 45565  53.0447 126.0692 0007954  16.5992 343.5282 15.65813729334760
STARLINK-1361,45567,53.0448,0.0002062,15.56885991,395.2788550028672,398.0727878104153,1 45567U 20025AN  26124.57235301  .00089482  00000+0  12156-2 0  9994,2 45567  53.0448 164.7952 0002062 339.3077  20.7850 15.56885991334233
STARLINK-1363,45568,53.0322,0.000288,15.95967818,283.6998626937584,287.5381861638298,1 45568U 20025AP  26124.91668980  .00326517  53599-4  78563-3 0  9990,2 45568  53.0322 113.3718 0002880  66.0536 171.3087 15.95967818  5970
STARLINK-1366,45569,53.0339,0.0002943,15.91985925,294.76162601450596,298.6904503987935,1 45569U 20025AQ  26124.91668980  .00258817  36220-4  77160-3 0  9992,2 45569  53.0339 114.9630 0002943  42.4662  76.2145 15.91985925  6027
STARLINK-1376,45570,53.1586,0.0005104,15.35308735,456.513433618431,463.4938075639311,1 45570U 20025AR  26124.40856336  .00047648  00000+0  13718-2 0  9990,2 45570  53.1586 178.0256 0005104   6.4912 353.6156 15.35308735334045
STARLINK-1320,45572,53.0455,0.0003393,15.7873981,331.73269959074605,336.28756263391915,1 45572U 20025AT  26124.91668980  .00065567  00000+0  36699-3 0  9998,2 45572  53.0455  66.2444 0003393 166.2821 352.8764 15.78739810  5938
STARLINK-1321,45573,53.0426,0.0005551,15.5810472,389.38384380170464,396.90131839263904,1 45573U 20025AU  26124.28503025  .00086635  00000+0  11246-2 0  9996,2 45573  53.0426 150.3656 0005551   7.3723 352.7369 15.58104720334109
STARLINK-1331,45578,53.0474,0.0007111,15.5764799,389.65015777849385,399.28215398679004,1 45578U 20025AZ  26124.55824105  .00089035  00000+0  11747-2 0  9999,2 45578  53.0474 155.8451 0007111 350.9106   9.1775 15.57647990334368
STARLINK-1333,45580,53.1578,0.0003189,15.32316201,466.7202264010193,471.0872689898988,1 45580U 20025BB  26124.12811307  .00044260  00000+0  14022-2 0  9995,2 45580  53.1578 180.1129 0003189  33.5733 326.5470 15.32316201333998
STARLINK-1335,45581,53.1546,0.0004128,15.33912637,461.32767230067566,466.9766662388247,1 45581U 20025BC  26124.45353570  .00040922  00000+0  12344-2 0  9991,2 45581  53.1546 175.7055 0004128  19.1544 340.9613 15.33912637334071
STARLINK-1337,45582,53.0466,0.0007703,15.6957175,354.93191682474935,365.3128792533671,1 45582U 20025BD  26124.73801310  .00124199  00000+0  10191-2 0  9990,2 45582  53.0466 147.2505 0007703   0.6110 359.4914 15.69571750334482
STARLINK-1347,45586,53.0379,0.0005213,15.65095468,369.44485975250973,376.483557872818,1 45586U 20025BH  26124.67709780  .00053050  00000+0  53000-3 0  9999,2 45586  53.0379 116.7467 0005213  32.8963 327.2375 15.65095468334908
STARLINK-1364,45589,53.0445,0.0005164,15.59249309,386.3334958433925,393.3234505841274,1 45589U 20025BL  26124.30090530  .00085221  00000+0  10599-2 0  9998,2 45589  53.0445 154.5342 0005164 331.7669  28.3063 15.59249309334345
STARLINK-1365,45590,53.0478,0.0005012,15.5412762,401.2901637722571,408.0892692728994,1 45590U 20025BM  26124.58089190  .00153233  00000+0  22797-2 0  9992,2 45590  53.0478 185.4484 0005012 332.4606  27.6137 15.54127620333950
STARLINK-1443,45660,53.1329,0.0003827,15.29954272,473.32580847183453,478.5719257945384,1 45660U 20035D   26124.39172645  .00041158  00000+0  14044-2 0  9996,2 45660  53.1329 167.0518 0003827 354.1595   5.9360 15.29954272327276
STARLINK-1446,45663,53.0225,0.0004615,15.45626801,426.39522235432287,432.6787054229917,1 45663U 20035G   26124.21462917  .00020895  00000+0  43442-3 0  9994,2 45663  53.0225  95.1200 0004615  72.7565 287.3945 15.45626801328254
STARLINK-1448,45665,53.0436,0.0007321,15.64510517,369.70315934462997,379.5905854906232,1 45665U 20035J   26124.91668980  .00055024  00000+0  56192-3 0  9999,2 45665  53.0436 139.4835 0007321 354.3844 137.3021 15.64510517  6004
STARLINK-1451,45668,53.0511,0.0001997,15.11954116,528.8615204055941,531.6207266281262,1 45668U 20035M   26124.55469115 -.00351724  00000+0 -21270-1 0  9996,2 45668  53.0511 173.2833 0001997  18.3451 341.7612 15.11954116327191
STARLINK-1452,45669,53.0269,0.0001397,15.53280396,406.2080115897361,408.10382243074855,1 45669U 20035N   26124.67652204  .00092925  00000+0  14399-2 0  9991,2 45669  53.0269 113.2711 0001397  21.7632 338.3436 15.53280396328043
STARLINK-1453,45670,53.0408,0.0003484,15.64799065,371.4643267264537,376.1690880697688,1 45670U 20035P   26124.80562301  .00060783  00000+0  61325-3 0  9995,2 45670  53.0408 100.4298 0003484  73.2799 286.8597 15.64799065328127
STARLINK-1454,45671,53.0436,0.0004552,15.61809441,379.3529678403511,385.50778838138376,1 45671U 20035Q   26124.91668980  .00161155  00000+0  17952-2 0  9999,2 45671  53.0436 140.3057 0004552 340.9045 325.8920 15.61809441  5897
STARLINK-1456,45673,53.0438,0.0007775,15.59925697,382.6113544433656,393.13249832389283,1 45673U 20035S   26124.28255598  .00096177  00000+0  11626-2 0  9991,2 45673  53.0438 137.5848 0007775  24.2640 335.8736 15.59925697327678
STARLINK-1457,45674,53.0363,0.0002396,16.03351548,263.55300785370855,266.73646846263364,1 45674U 20035T   26124.84230111  .00496950  12386-3  78249-3 0  9990,2 45674  53.0363  96.9607 0002396  62.0061 298.1212 16.03351548328251
STARLINK-1458,45675,53.0462,0.000643,15.51344667,408.4325175881513,417.16566139924,1 45675U 20035U   26124.29998499  .00077963  00000+0  12979-2 0  9992,2 45675  53.0462 149.8364 0006430 346.7668  13.3171 15.51344667327467
STARLINK-1460,45676,53.1561,0.0003953,15.32269931,466.33489749960154,471.7482768906393,1 45676U 20035V   26124.49153061  .00025309  00000+0  80997-3 0  9996,2 45676  53.1561 165.5674 0003953  34.0525 326.0730 15.32269931327266
STARLINK-1392,45677,53.1525,0.0002811,15.35347984,457.96491326203886,461.8092504008446,1 45677U 20035W   26124.38500973  .00090030  00000+0  25652-2 0  9992,2 45677  53.1525 165.4845 0002811  58.2248 301.9029 15.35347984327292
STARLINK-1394,45679,53.0422,0.0008679,15.59879095,382.13434772371966,393.87901993010655,1 45679U 20035Y   26124.47237819  .00090683  00000+0  10989-2 0  9991,2 45679  53.0422 126.8876 0008679  30.5140 329.6375 15.59879095327836
STARLINK-1402,45685,53.0422,0.0008108,15.53485052,401.05894231019283,412.06100692423297,1 45685U 20035AE  26124.39057226  .00080116  00000+0  12339-2 0  9992,2 45685  53.0422 116.3727 0008108  51.3284 308.8450 15.53485052327988
